LUCAS (JDRS-1)          
1 47202U 20089A   26063.71919897 -.00000246  00000+0  00000+0 0  9993
2 47202   0.0605 275.5770 0002801  64.9321 171.6252  1.00273242 19372
SXM-7                   
1 47240U 20096A   26063.30044841 -.00000217  00000+0  00000+0 0  9994
2 47240   0.0208 120.1047 0004256   6.4566  58.4603  1.00271682  6399
CMS-01                  
1 47256U 20099A   26063.75322707 -.00000175  00000+0  00000+0 0  9996
2 47256   0.0193 129.5159 0006365 160.1590 226.9680  1.00272312 19150
TURKSAT 5A              
1 47306U 21001A   26063.36572510  .00000142  00000+0  00000+0 0  9995
2 47306   0.0228 100.1896 0000104  19.3439 205.1498  1.00271506 18913
TIANTONG-1 3            
1 47321U 21003A   26063.75322707 -.00000166  00000+0  00000+0 0  9995
2 47321   1.8543 333.2431 0003147 358.5246 183.3555  1.00278981 18912
TJS-6                   
1 47613U 21010A   26063.59211302  .00000032  00000+0  00000+0 0  9998
2 47613   0.3303  90.8331 0003298 283.9791 179.1608  1.00270764 18768
SBIRS GEO-5 (USA 315)   
1 48618U 21042A   26063.83378066 -.00000279  00000+0  00000+0 0  9991
2 48618   5.2364 328.3416 0001502   3.2883 224.8816  1.00271534 17729
FENGYUN 4B              
1 48808U 21047A   26063.75878159 -.00000340  00000+0  00000+0 0  9995
2 48808   0.1928  76.9826 0007979 295.2033 168.0514  1.00276646 17526
SXM-8                   
1 48838U 21049A   26063.30044841 -.00000217  00000+0  00000+0 0  9997
2 48838   0.0269  58.6722 0004370 346.3267 140.0540  1.00273408 17541
TIANLIAN 1-05           
1 49011U 21063A   26063.86685647  .00000098  00000+0  00000+0 0  9999
2 49011   1.3246  81.5760 0004566 228.6953 181.1487  1.00271820 17038
STAR ONE D2             
1 49055U 21069A   26063.15600581 -.00000278  00000+0  00000+0 0  9990
2 49055   0.0135 136.1032 0001084 179.4739 192.4995  1.00276357 16886
EUTELSAT QUANTUM        
1 49056U 21069B   26063.29905912  .00000114  00000+0  00000+0 0  9990
2 49056   0.0446 310.8550 0002909  28.0604 338.4798  1.00272176 16872
ZHONGXING-2E            
1 49062U 21071A   26063.83378067 -.00000302  00000+0  00000+0 0  9995
2 49062   0.0654 293.0036 0000765 234.0626  33.6781  1.00274610 16996
TJS-7                   
1 49115U 21077A   26063.06596060 -.00000136  00000+0  00000+0 0  9995
2 49115   0.2371  88.4034 0001753 262.7421  94.8652  1.00269828  8493
CHINASAT 9B             
1 49125U 21080A   26063.88551862 -.00000322  00000+0  00000+0 0  9998
2 49125   0.0261 247.7708 0002071  75.2485 259.8068  1.00271652 16603
SHIJIAN-21 (SJ-21)      
1 49330U 21094A   26063.83273334 -.00000356  00000+0  00000+0 0  9998
2 49330   4.8661  61.7673 0048301 171.5774 356.9499  1.00267910  4313
SES-17                  
1 49332U 21095A   26063.34003264 -.00000284  00000+0  00000+0 0  9990
2 49332   0.0238  64.0844 0001028 278.4956 234.8100  1.00269943 16801
