[{"OBJECT_NAME":"LUCAS (JDRS-1)","OBJECT_ID":"2020-089A","EPOCH":"2026-03-04T17:15:38.791008","MEAN_MOTION":1.00273242,"ECCENTRICITY":0.0002801,"INCLINATION":0.0605,"RA_OF_ASC_NODE":275.577,"ARG_OF_PERICENTER":64.9321,"MEAN_ANOMALY":171.6252,"EPHEMERIS_TYPE":0,"CLASSIFICATION_TYPE":"U","NORAD_CAT_ID":47202,"ELEMENT_SET_NO":999,"REV_AT_EPOCH":1937,"BSTAR":0,"MEAN_MOTION_DOT":-2.46e-6,"MEAN_MOTION_DDOT":0},{"OBJECT_NAME":"SXM-7","OBJECT_ID":"2020-096A","EPOCH":"2026-03-04T07:12:38.742624","MEAN_MOTION":1.00271682,"ECCENTRICITY":0.00042567,"INCLINATION":0.0208,"RA_OF_ASC_NODE":120.1047,"ARG_OF_PERICENTER":6.4566,"MEAN_ANOMALY":58.4603,"EPHEMERIS_TYPE":0,"CLASSIFICATION_TYPE":"U","NORAD_CAT_ID":47240,"ELEMENT_SET_NO":999,"REV_AT_EPOCH":639,"BSTAR":0,"MEAN_MOTION_DOT":-2.17e-6,"MEAN_MOTION_DDOT":0},{"OBJECT_NAME":"CMS-01","OBJECT_ID":"2020-099A","EPOCH":"2026-03-04T18:04:38.818848","MEAN_MOTION":1.00272312,"ECCENTRICITY":0.0006365,"INCLINATION":0.0193,"RA_OF_ASC_NODE":129.5159,"ARG_OF_PERICENTER":160.159,"MEAN_ANOMALY":226.968,"EPHEMERIS_TYPE":0,"CLASSIFICATION_TYPE":"U","NORAD_CAT_ID":47256,"ELEMENT_SET_NO":999,"REV_AT_EPOCH":1915,"BSTAR":0,"MEAN_MOTION_DOT":-1.75e-6,"MEAN_MOTION_DDOT":0},{"OBJECT_NAME":"TURKSAT 5A","OBJECT_ID":"2021-001A","EPOCH":"2026-03-04T08:46:38.648640","MEAN_MOTION":1.00271506,"ECCENTRICITY":1.043e-5,"INCLINATION":0.0228,"RA_OF_ASC_NODE":100.1896,"ARG_OF_PERICENTER":19.3439,"MEAN_ANOMALY":205.1498,"EPHEMERIS_TYPE":0,"CLASSIFICATION_TYPE":"U","NORAD_CAT_ID":47306,"ELEMENT_SET_NO":999,"REV_AT_EPOCH":1891,"BSTAR":0,"MEAN_MOTION_DOT":1.42e-6,"MEAN_MOTION_DDOT":0},{"OBJECT_NAME":"TIANTONG-1 3","OBJECT_ID":"2021-003A","EPOCH":"2026-03-04T18:04:38.818848","MEAN_MOTION":1.00278981,"ECCENTRICITY":0.0003147,"INCLINATION":1.8543,"RA_OF_ASC_NODE":333.2431,"ARG_OF_PERICENTER":358.5246,"MEAN_ANOMALY":183.3555,"EPHEMERIS_TYPE":0,"CLASSIFICATION_TYPE":"U","NORAD_CAT_ID":47321,"ELEMENT_SET_NO":999,"REV_AT_EPOCH":1891,"BSTAR":0,"MEAN_MOTION_DOT":-1.66e-6,"MEAN_MOTION_DDOT":0},{"OBJECT_NAME":"TJS-6","OBJECT_ID":"2021-010A","EPOCH":"2026-03-04T14:12:38.564928","MEAN_MOTION":1.00270764,"ECCENTRICITY":0.0003298,"INCLINATION":0.3303,"RA_OF_ASC_NODE":90.8331,"ARG_OF_PERICENTER":283.9791,"MEAN_ANOMALY":179.1608,"EPHEMERIS_TYPE":0,"CLASSIFICATION_TYPE":"U","NORAD_CAT_ID":47613,"ELEMENT_SET_NO":999,"REV_AT_EPOCH":1876,"BSTAR":0,"MEAN_MOTION_DOT":3.2e-7,"MEAN_MOTION_DDOT":0},{"OBJECT_NAME":"SBIRS GEO-5 (USA 315)","OBJECT_ID":"2021-042A","EPOCH":"2026-03-04T20:00:38.649024","MEAN_MOTION":1.00271534,"ECCENTRICITY":0.0001502,"INCLINATION":5.2364,"RA_OF_ASC_NODE":328.3416,"ARG_OF_PERICENTER":3.2883,"MEAN_ANOMALY":224.8816,"EPHEMERIS_TYPE":0,"CLASSIFICATION_TYPE":"U","NORAD_CAT_ID":48618,"ELEMENT_SET_NO":999,"REV_AT_EPOCH":1772,"BSTAR":0,"MEAN_MOTION_DOT":-2.79e-6,"MEAN_MOTION_DDOT":0},{"OBJECT_NAME":"FENGYUN 4B","OBJECT_ID":"2021-047A","EPOCH":"2026-03-04T18:12:38.729376","MEAN_MOTION":1.00276646,"ECCENTRICITY":0.0007979,"INCLINATION":0.1928,"RA_OF_ASC_NODE":76.9826,"ARG_OF_PERICENTER":295.2033,"MEAN_ANOMALY":168.0514,"EPHEMERIS_TYPE":0,"CLASSIFICATION_TYPE":"U","NORAD_CAT_ID":48808,"ELEMENT_SET_NO":999,"REV_AT_EPOCH":1752,"BSTAR":0,"MEAN_MOTION_DOT":-3.4e-6,"MEAN_MOTION_DDOT":0},{"OBJECT_NAME":"SXM-8","OBJECT_ID":"2021-049A","EPOCH":"2026-03-04T07:12:38.742624","MEAN_MOTION":1.00273408,"ECCENTRICITY":0.00043702,"INCLINATION":0.0269,"RA_OF_ASC_NODE":58.6722,"ARG_OF_PERICENTER":346.3267,"MEAN_ANOMALY":140.054,"EPHEMERIS_TYPE":0,"CLASSIFICATION_TYPE":"U","NORAD_CAT_ID":48838,"ELEMENT_SET_NO":999,"REV_AT_EPOCH":1754,"BSTAR":0,"MEAN_MOTION_DOT":-2.17e-6,"MEAN_MOTION_DDOT":0},{"OBJECT_NAME":"TIANLIAN 1-05","OBJECT_ID":"2021-063A","EPOCH":"2026-03-04T20:48:16.399008","MEAN_MOTION":1.0027182,"ECCENTRICITY":0.0004566,"INCLINATION":1.3246,"RA_OF_ASC_NODE":81.576,"ARG_OF_PERICENTER":228.6953,"MEAN_ANOMALY":181.1487,"EPHEMERIS_TYPE":0,"CLASSIFICATION_TYPE":"U","NORAD_CAT_ID":49011,"ELEMENT_SET_NO":999,"REV_AT_EPOCH":1703,"BSTAR":0,"MEAN_MOTION_DOT":9.8e-7,"MEAN_MOTION_DDOT":0},{"OBJECT_NAME":"STAR ONE D2","OBJECT_ID":"2021-069A","EPOCH":"2026-03-04T03:44:38.901984","MEAN_MOTION":1.00276357,"ECCENTRICITY":0.00010848,"INCLINATION":0.0135,"RA_OF_ASC_NODE":136.1032,"ARG_OF_PERICENTER":179.4739,"MEAN_ANOMALY":192.4995,"EPHEMERIS_TYPE":0,"CLASSIFICATION_TYPE":"U","NORAD_CAT_ID":49055,"ELEMENT_SET_NO":999,"REV_AT_EPOCH":1688,"BSTAR":0,"MEAN_MOTION_DOT":-2.78e-6,"MEAN_MOTION_DDOT":0},{"OBJECT_NAME":"EUTELSAT QUANTUM","OBJECT_ID":"2021-069B","EPOCH":"2026-03-04T07:10:38.707968","MEAN_MOTION":1.00272176,"ECCENTRICITY":0.00029099,"INCLINATION":0.0446,"RA_OF_ASC_NODE":310.855,"ARG_OF_PERICENTER":28.0604,"MEAN_ANOMALY":338.4798,"EPHEMERIS_TYPE":0,"CLASSIFICATION_TYPE":"U","NORAD_CAT_ID":49056,"ELEMENT_SET_NO":999,"REV_AT_EPOCH":1687,"BSTAR":0,"MEAN_MOTION_DOT":1.14e-6,"MEAN_MOTION_DDOT":0},{"OBJECT_NAME":"ZHONGXING-2E","OBJECT_ID":"2021-071A","EPOCH":"2026-03-04T20:00:38.649888","MEAN_MOTION":1.0027461,"ECCENTRICITY":7.65e-5,"INCLINATION":0.0654,"RA_OF_ASC_NODE":293.0036,"ARG_OF_PERICENTER":234.0626,"MEAN_ANOMALY":33.6781,"EPHEMERIS_TYPE":0,"CLASSIFICATION_TYPE":"U","NORAD_CAT_ID":49062,"ELEMENT_SET_NO":999,"REV_AT_EPOCH":1699,"BSTAR":0,"MEAN_MOTION_DOT":-3.02e-6,"MEAN_MOTION_DDOT":0},{"OBJECT_NAME":"TJS-7","OBJECT_ID":"2021-077A","EPOCH":"2026-03-04T01:34:58.995840","MEAN_MOTION":1.00269828,"ECCENTRICITY":0.00017539,"INCLINATION":0.2371,"RA_OF_ASC_NODE":88.4034,"ARG_OF_PERICENTER":262.7421,"MEAN_ANOMALY":94.8652,"EPHEMERIS_TYPE":0,"CLASSIFICATION_TYPE":"U","NORAD_CAT_ID":49115,"ELEMENT_SET_NO":999,"REV_AT_EPOCH":849,"BSTAR":0,"MEAN_MOTION_DOT":-1.36e-6,"MEAN_MOTION_DDOT":0},{"OBJECT_NAME":"CHINASAT 9B","OBJECT_ID":"2021-080A","EPOCH":"2026-03-04T21:15:08.808768","MEAN_MOTION":1.00271652,"ECCENTRICITY":0.0002071,"INCLINATION":0.0261,"RA_OF_ASC_NODE":247.7708,"ARG_OF_PERICENTER":75.2485,"MEAN_ANOMALY":259.8068,"EPHEMERIS_TYPE":0,"CLASSIFICATION_TYPE":"U","NORAD_CAT_ID":49125,"ELEMENT_SET_NO":999,"REV_AT_EPOCH":1660,"BSTAR":0,"MEAN_MOTION_DOT":-3.22e-6,"MEAN_MOTION_DDOT":0},{"OBJECT_NAME":"SHIJIAN-21 (SJ-21)","OBJECT_ID":"2021-094A","EPOCH":"2026-03-04T19:59:08.160576","MEAN_MOTION":1.0026791,"ECCENTRICITY":0.0048301,"INCLINATION":4.8661,"RA_OF_ASC_NODE":61.7673,"ARG_OF_PERICENTER":171.5774,"MEAN_ANOMALY":356.9499,"EPHEMERIS_TYPE":0,"CLASSIFICATION_TYPE":"U","NORAD_CAT_ID":49330,"ELEMENT_SET_NO":999,"REV_AT_EPOCH":431,"BSTAR":0,"MEAN_MOTION_DOT":-3.56e-6,"MEAN_MOTION_DDOT":0},{"OBJECT_NAME":"SES-17","OBJECT_ID":"2021-095A","EPOCH":"2026-03-04T08:09:38.820096","MEAN_MOTION":1.00269943,"ECCENTRICITY":0.00010286,"INCLINATION":0.0238,"RA_OF_ASC_NODE":64.0844,"ARG_OF_PERICENTER":278.4956,"MEAN_ANOMALY":234.81,"EPHEMERIS_TYPE":0,"CLASSIFICATION_TYPE":"U","NORAD_CAT_ID":49332,"ELEMENT_SET_NO":999,"REV_AT_EPOCH":1680,"BSTAR":0,"MEAN_MOTION_DOT":-2.84e-6,"MEAN_MOTION_DDOT":0}]
